STARLINK-34078          
1 64012U 25101U   25221.41411501  .00025688  00000+0  93881-3 0  9991
2 64012  43.0015 116.4970 0001357 279.2771  80.7928 15.27612566 14591
STARLINK-34182          
1 64013U 25101V   25221.58335648  .00064187  00000+0  23233-2 0  9997
2 64013  43.0005 112.6483 0001696 256.3723  79.2980 15.27558864  5857
STARLINK-34192          
1 64014U 25101W   25221.39755815  .00027020  00000+0  98678-3 0  9990
2 64014  42.9990 117.2392 0001213 270.9419  89.1293 15.27614501 14586
STARLINK-34093          
1 64015U 25101X   25221.42053527  .00031480  00000+0  11471-2 0  9996
2 64015  43.0034 116.5496 0002844 266.8302  93.2225 15.27621012 14598
STARLINK-34016          
1 64016U 25101Y   25221.41539903  .00035575  00000+0  12957-2 0  9992
2 64016  43.0047 116.5042 0001136  57.0917 303.0044 15.27589635 14590
STARLINK-34161          
1 64017U 25101Z   25221.42438837  .00016243  00000+0  59780-3 0  9995
2 64017  42.9956 116.5774 0002247  63.3221 296.7860 15.27617450 14593
STARLINK-34162          
1 64018U 25101AA  25221.11031782  .00029521  00000+0  10768-2 0  9995
2 64018  43.0041 118.5206 0001065 325.5800  34.4982 15.27616702 14542
STARLINK-34155          
1 64019U 25101AB  25221.11802497  .00016463  00000+0  60610-3 0  9998
2 64019  43.0036 118.5768 0001462 278.9703  81.0983 15.27598043 14540
STARLINK-34141          
1 64020U 25101AC  25221.44109664  .00032789  00000+0  11941-2 0  9993
2 64020  43.0017 116.7030 0001322 278.7026  81.3676 15.27626164 14597
STARLINK-34062          
1 64021U 25101AD  25221.41925394  .00017712  00000+0  65115-3 0  9999
2 64021  43.0006 116.5338 0001397 277.2482  82.8211 15.27604284 14597
STARLINK-34051          
1 64022U 25102A   25221.58335648  .00038202  00000+0  31927-2 0  9996
2 64022  70.0001 289.2486 0004190 271.1202 342.5261 14.98319196 14179
STARLINK-34184          
1 64023U 25102B   25221.55286050  .00005425  00000+0  46188-3 0  9993
2 64023  70.0005 289.4223 0004177 269.1207  90.9474 14.98345218 14255
STARLINK-34087          
1 64024U 25102C   25221.58622797  .00004719  00000+0  40289-3 0  9990
2 64024  70.0002 289.1354 0003645 269.8156  90.2585 14.98342984 14077
STARLINK-34088          
1 64025U 25102D   25221.56137284  .00005046  00000+0  43019-3 0  9999
2 64025  70.0005 289.4476 0004234 268.8497  91.2177 14.98344503 14180
STARLINK-33992          
1 64026U 25102E   25221.56955730  .00005008  00000+0  42708-3 0  9996
2 64026  70.0004 289.4815 0003341 269.1337  90.9439 14.98342402 14275
STARLINK-33967          
1 64027U 25102F   25221.80320497  .00004046  00000+0  34657-3 0  9995
2 64027  70.0001 288.6884 0003883 268.7962  91.2752 14.98342081 14152
