[{"OBJECT_NAME":"STARLINK-34078","OBJECT_ID":"2025-101U","EPOCH":"2025-08-09T09:56:19.536864","MEAN_MOTION":15.27612566,"ECCENTRICITY":0.0001357,"INCLINATION":43.0015,"RA_OF_ASC_NODE":116.497,"ARG_OF_PERICENTER":279.2771,"MEAN_ANOMALY":80.7928,"EPHEMERIS_TYPE":0,"CLASSIFICATION_TYPE":"U","NORAD_CAT_ID":64012,"ELEMENT_SET_NO":999,"REV_AT_EPOCH":1459,"BSTAR":0.00093881,"MEAN_MOTION_DOT":0.00025688,"MEAN_MOTION_DDOT":0},{"OBJECT_NAME":"STARLINK-34182","OBJECT_ID":"2025-101V","EPOCH":"2025-08-09T14:00:01.999872","MEAN_MOTION":15.27558864,"ECCENTRICITY":0.0001696,"INCLINATION":43.0005,"RA_OF_ASC_NODE":112.6483,"ARG_OF_PERICENTER":256.3723,"MEAN_ANOMALY":79.298,"EPHEMERIS_TYPE":0,"CLASSIFICATION_TYPE":"U","NORAD_CAT_ID":64013,"ELEMENT_SET_NO":999,"REV_AT_EPOCH":585,"BSTAR":0.0023233,"MEAN_MOTION_DOT":0.00064187,"MEAN_MOTION_DDOT":0},{"OBJECT_NAME":"STARLINK-34192","OBJECT_ID":"2025-101W","EPOCH":"2025-08-09T09:32:29.024160","MEAN_MOTION":15.27614501,"ECCENTRICITY":0.0001213,"INCLINATION":42.999,"RA_OF_ASC_NODE":117.2392,"ARG_OF_PERICENTER":270.9419,"MEAN_ANOMALY":89.1293,"EPHEMERIS_TYPE":0,"CLASSIFICATION_TYPE":"U","NORAD_CAT_ID":64014,"ELEMENT_SET_NO":999,"REV_AT_EPOCH":1458,"BSTAR":0.00098678,"MEAN_MOTION_DOT":0.0002702,"MEAN_MOTION_DDOT":0},{"OBJECT_NAME":"STARLINK-34093","OBJECT_ID":"2025-101X","EPOCH":"2025-08-09T10:05:34.247328","MEAN_MOTION":15.27621012,"ECCENTRICITY":0.0002844,"INCLINATION":43.0034,"RA_OF_ASC_NODE":116.5496,"ARG_OF_PERICENTER":266.8302,"MEAN_ANOMALY":93.2225,"EPHEMERIS_TYPE":0,"CLASSIFICATION_TYPE":"U","NORAD_CAT_ID":64015,"ELEMENT_SET_NO":999,"REV_AT_EPOCH":1459,"BSTAR":0.0011471,"MEAN_MOTION_DOT":0.0003148,"MEAN_MOTION_DDOT":0},{"OBJECT_NAME":"STARLINK-34016","OBJECT_ID":"2025-101Y","EPOCH":"2025-08-09T09:58:10.476192","MEAN_MOTION":15.27589635,"ECCENTRICITY":0.0001136,"INCLINATION":43.0047,"RA_OF_ASC_NODE":116.5042,"ARG_OF_PERICENTER":57.0917,"MEAN_ANOMALY":303.0044,"EPHEMERIS_TYPE":0,"CLASSIFICATION_TYPE":"U","NORAD_CAT_ID":64016,"ELEMENT_SET_NO":999,"REV_AT_EPOCH":1459,"BSTAR":0.0012957,"MEAN_MOTION_DOT":0.00035575,"MEAN_MOTION_DDOT":0},{"OBJECT_NAME":"STARLINK-34161","OBJECT_ID":"2025-101Z","EPOCH":"2025-08-09T10:11:07.155168","MEAN_MOTION":15.2761745,"ECCENTRICITY":0.0002247,"INCLINATION":42.9956,"RA_OF_ASC_NODE":116.5774,"ARG_OF_PERICENTER":63.3221,"MEAN_ANOMALY":296.786,"EPHEMERIS_TYPE":0,"CLASSIFICATION_TYPE":"U","NORAD_CAT_ID":64017,"ELEMENT_SET_NO":999,"REV_AT_EPOCH":1459,"BSTAR":0.0005978,"MEAN_MOTION_DOT":0.00016243,"MEAN_MOTION_DDOT":0},{"OBJECT_NAME":"STARLINK-34162","OBJECT_ID":"2025-101AA","EPOCH":"2025-08-09T02:38:51.459648","MEAN_MOTION":15.27616702,"ECCENTRICITY":0.0001065,"INCLINATION":43.0041,"RA_OF_ASC_NODE":118.5206,"ARG_OF_PERICENTER":325.58,"MEAN_ANOMALY":34.4982,"EPHEMERIS_TYPE":0,"CLASSIFICATION_TYPE":"U","NORAD_CAT_ID":64018,"ELEMENT_SET_NO":999,"REV_AT_EPOCH":1454,"BSTAR":0.0010768,"MEAN_MOTION_DOT":0.00029521,"MEAN_MOTION_DDOT":0},{"OBJECT_NAME":"STARLINK-34155","OBJECT_ID":"2025-101AB","EPOCH":"2025-08-09T02:49:57.357408","MEAN_MOTION":15.27598043,"ECCENTRICITY":0.0001462,"INCLINATION":43.0036,"RA_OF_ASC_NODE":118.5768,"ARG_OF_PERICENTER":278.9703,"MEAN_ANOMALY":81.0983,"EPHEMERIS_TYPE":0,"CLASSIFICATION_TYPE":"U","NORAD_CAT_ID":64019,"ELEMENT_SET_NO":999,"REV_AT_EPOCH":1454,"BSTAR":0.0006061,"MEAN_MOTION_DOT":0.00016463,"MEAN_MOTION_DDOT":0},{"OBJECT_NAME":"STARLINK-34141","OBJECT_ID":"2025-101AC","EPOCH":"2025-08-09T10:35:10.749696","MEAN_MOTION":15.27626164,"ECCENTRICITY":0.0001322,"INCLINATION":43.0017,"RA_OF_ASC_NODE":116.703,"ARG_OF_PERICENTER":278.7026,"MEAN_ANOMALY":81.3676,"EPHEMERIS_TYPE":0,"CLASSIFICATION_TYPE":"U","NORAD_CAT_ID":64020,"ELEMENT_SET_NO":999,"REV_AT_EPOCH":1459,"BSTAR":0.0011941,"MEAN_MOTION_DOT":0.00032789,"MEAN_MOTION_DDOT":0},{"OBJECT_NAME":"STARLINK-34062","OBJECT_ID":"2025-101AD","EPOCH":"2025-08-09T10:03:43.540416","MEAN_MOTION":15.27604284,"ECCENTRICITY":0.0001397,"INCLINATION":43.0006,"RA_OF_ASC_NODE":116.5338,"ARG_OF_PERICENTER":277.2482,"MEAN_ANOMALY":82.8211,"EPHEMERIS_TYPE":0,"CLASSIFICATION_TYPE":"U","NORAD_CAT_ID":64021,"ELEMENT_SET_NO":999,"REV_AT_EPOCH":1459,"BSTAR":0.00065115,"MEAN_MOTION_DOT":0.00017712,"MEAN_MOTION_DDOT":0},{"OBJECT_NAME":"STARLINK-34051","OBJECT_ID":"2025-102A","EPOCH":"2025-08-09T14:00:01.999872","MEAN_MOTION":14.98319196,"ECCENTRICITY":0.000419,"INCLINATION":70.0001,"RA_OF_ASC_NODE":289.2486,"ARG_OF_PERICENTER":271.1202,"MEAN_ANOMALY":342.5261,"EPHEMERIS_TYPE":0,"CLASSIFICATION_TYPE":"U","NORAD_CAT_ID":64022,"ELEMENT_SET_NO":999,"REV_AT_EPOCH":1417,"BSTAR":0.0031927,"MEAN_MOTION_DOT":0.00038202,"MEAN_MOTION_DDOT":0},{"OBJECT_NAME":"STARLINK-34184","OBJECT_ID":"2025-102B","EPOCH":"2025-08-09T13:16:07.147200","MEAN_MOTION":14.98345218,"ECCENTRICITY":0.0004177,"INCLINATION":70.0005,"RA_OF_ASC_NODE":289.4223,"ARG_OF_PERICENTER":269.1207,"MEAN_ANOMALY":90.9474,"EPHEMERIS_TYPE":0,"CLASSIFICATION_TYPE":"U","NORAD_CAT_ID":64023,"ELEMENT_SET_NO":999,"REV_AT_EPOCH":1425,"BSTAR":0.00046188,"MEAN_MOTION_DOT":5.425e-5,"MEAN_MOTION_DDOT":0},{"OBJECT_NAME":"STARLINK-34087","OBJECT_ID":"2025-102C","EPOCH":"2025-08-09T14:04:10.096608","MEAN_MOTION":14.98342984,"ECCENTRICITY":0.0003645,"INCLINATION":70.0002,"RA_OF_ASC_NODE":289.1354,"ARG_OF_PERICENTER":269.8156,"MEAN_ANOMALY":90.2585,"EPHEMERIS_TYPE":0,"CLASSIFICATION_TYPE":"U","NORAD_CAT_ID":64024,"ELEMENT_SET_NO":999,"REV_AT_EPOCH":1407,"BSTAR":0.00040289,"MEAN_MOTION_DOT":4.719e-5,"MEAN_MOTION_DDOT":0},{"OBJECT_NAME":"STARLINK-34088","OBJECT_ID":"2025-102D","EPOCH":"2025-08-09T13:28:22.613376","MEAN_MOTION":14.98344503,"ECCENTRICITY":0.0004234,"INCLINATION":70.0005,"RA_OF_ASC_NODE":289.4476,"ARG_OF_PERICENTER":268.8497,"MEAN_ANOMALY":91.2177,"EPHEMERIS_TYPE":0,"CLASSIFICATION_TYPE":"U","NORAD_CAT_ID":64025,"ELEMENT_SET_NO":999,"REV_AT_EPOCH":1418,"BSTAR":0.00043019,"MEAN_MOTION_DOT":5.046e-5,"MEAN_MOTION_DDOT":0},{"OBJECT_NAME":"STARLINK-33992","OBJECT_ID":"2025-102E","EPOCH":"2025-08-09T13:40:09.750720","MEAN_MOTION":14.98342402,"ECCENTRICITY":0.0003341,"INCLINATION":70.0004,"RA_OF_ASC_NODE":289.4815,"ARG_OF_PERICENTER":269.1337,"MEAN_ANOMALY":90.9439,"EPHEMERIS_TYPE":0,"CLASSIFICATION_TYPE":"U","NORAD_CAT_ID":64026,"ELEMENT_SET_NO":999,"REV_AT_EPOCH":1427,"BSTAR":0.00042708,"MEAN_MOTION_DOT":5.008e-5,"MEAN_MOTION_DDOT":0},{"OBJECT_NAME":"STARLINK-33967","OBJECT_ID":"2025-102F","EPOCH":"2025-08-09T19:16:36.909408","MEAN_MOTION":14.98342081,"ECCENTRICITY":0.0003883,"INCLINATION":70.0001,"RA_OF_ASC_NODE":288.6884,"ARG_OF_PERICENTER":268.7962,"MEAN_ANOMALY":91.2752,"EPHEMERIS_TYPE":0,"CLASSIFICATION_TYPE":"U","NORAD_CAT_ID":64027,"ELEMENT_SET_NO":999,"REV_AT_EPOCH":1415,"BSTAR":0.00034657,"MEAN_MOTION_DOT":4.046e-5,"MEAN_MOTION_DDOT":0}]
